<?xml version="1.0" encoding="UTF-8"?>
<kml xmlns="http://www.opengis.net/kml/2.2" xmlns:gx="http://www.google.com/kml/ext/2.2" xmlns:kml="http://www.opengis.net/kml/2.2" xmlns:atom="http://www.w3.org/2005/Atom">
<Document>
	<name>AmeryIceShelf.kml</name>
	<StyleMap id="inline">
		<Pair>
			<key>normal</key>
			<styleUrl>#inline0</styleUrl>
		</Pair>
		<Pair>
			<key>highlight</key>
			<styleUrl>#inline1</styleUrl>
		</Pair>
	</StyleMap>
	<Style id="inline0">
		<LineStyle>
			<color>ff0000ff</color>
			<width>2</width>
		</LineStyle>
		<PolyStyle>
			<fill>0</fill>
		</PolyStyle>
	</Style>
	<Style id="inline1">
		<LineStyle>
			<color>ff0000ff</color>
			<width>2</width>
		</LineStyle>
		<PolyStyle>
			<fill>0</fill>
		</PolyStyle>
	</Style>
	<Placemark>
		<name>path</name>
		<styleUrl>#inline</styleUrl>
		<LineString>
			<tessellate>1</tessellate>
			<coordinates>
				76.08446090910782,-70.98495457887422,0 76.34743414030979,-68.00162255711992,0 72.57915595553807,-68.0113309662177,0 71.39630998220821,-67.99913912020824,0 71.22153584212047,-68.45948882110099,0 67.5083479025716,-68.4708265073515,0 65.07599964740938,-70.01031948763593,0 65.09336391402653,-72.00785942113865,0 65.0461219704609,-74.00565341885518,0 70.05168352570747,-74.0207364914092,0 76.07795526775188,-71.09946561186,0 
			</coordinates>
		</LineString>
		<atom:link rel="app" href="https://www.google.com/earth/about/versions/#earth-pro" title="Google Earth Pro 7.3.7.1155"></atom:link>
	</Placemark>
</Document>
</kml>
