<?xml version="1.0" encoding="UTF-8"?>
<kml xmlns="http://www.opengis.net/kml/2.2" xmlns:gx="http://www.google.com/kml/ext/2.2" xmlns:kml="http://www.opengis.net/kml/2.2" xmlns:atom="http://www.w3.org/2005/Atom">
<Document>
	<name>AmundsenSea.kml</name>
	<Style id="inline">
		<LineStyle>
			<color>ff0000ff</color>
			<width>2</width>
		</LineStyle>
		<PolyStyle>
			<fill>0</fill>
		</PolyStyle>
	</Style>
	<Style id="inline0">
		<LineStyle>
			<color>ff0000ff</color>
			<width>2</width>
		</LineStyle>
		<PolyStyle>
			<fill>0</fill>
		</PolyStyle>
	</Style>
	<StyleMap id="inline1">
		<Pair>
			<key>normal</key>
			<styleUrl>#inline</styleUrl>
		</Pair>
		<Pair>
			<key>highlight</key>
			<styleUrl>#inline0</styleUrl>
		</Pair>
	</StyleMap>
	<Placemark>
		<name>AmundsenSea</name>
		<styleUrl>#inline1</styleUrl>
		<LineString>
			<tessellate>1</tessellate>
			<coordinates>
				-96.73555211661385,-73.6848418714565,0 -99.97828631998445,-73.16863519874222,0 -104.5705034558282,-73.09139554973846,0 -103.4671659357064,-67.56635860680238,0 -120.0235805815988,-67.56384633393937,0 -140.1295368481354,-67.58931792676381,0 -149.5651757380704,-70.08621443999526,0 -149.7446630022144,-75.0186240194744,0 -135.7077136503974,-76.73332982984655,0 -123.1302054680726,-80.64530439033433,0 -98.60578196352697,-80.41103281053375,0 -97.05167733518677,-74.15042178409928,0 
			</coordinates>
		</LineString>
		<atom:link rel="app" href="https://www.google.com/earth/about/versions/#earth-pro" title="Google Earth Pro 7.3.7.1155"></atom:link>
	</Placemark>
</Document>
</kml>
