<?xml version="1.0" encoding="UTF-8"?>
<kml xmlns="http://www.opengis.net/kml/2.2" xmlns:gx="http://www.google.com/kml/ext/2.2" xmlns:kml="http://www.opengis.net/kml/2.2" xmlns:atom="http://www.w3.org/2005/Atom">
<Document>
	<name>BellingshausenSea.kml</name>
	<StyleMap id="inline">
		<Pair>
			<key>normal</key>
			<styleUrl>#inline0</styleUrl>
		</Pair>
		<Pair>
			<key>highlight</key>
			<styleUrl>#inline1</styleUrl>
		</Pair>
	</StyleMap>
	<Style id="inline0">
		<LineStyle>
			<color>ff0000ff</color>
			<width>2</width>
		</LineStyle>
		<PolyStyle>
			<fill>0</fill>
		</PolyStyle>
	</Style>
	<Style id="inline1">
		<LineStyle>
			<color>ff0000ff</color>
			<width>2</width>
		</LineStyle>
		<PolyStyle>
			<fill>0</fill>
		</PolyStyle>
	</Style>
	<Placemark>
		<name>BellingshausenSea</name>
		<styleUrl>#inline</styleUrl>
		<LineString>
			<tessellate>1</tessellate>
			<coordinates>
				-103.2809071337003,-67.57038928993202,0 -104.2909619575444,-73.01425720910258,0 -99.95658162346001,-73.12024923134383,0 -96.68381426863742,-73.65587788613639,0 -96.44611980301737,-76.36717435862815,0 -85.19175344959777,-76.27472930444925,0 -72.04214253321399,-75.82407472483588,0 -64.47425366973476,-73.97415671477906,0 -65.23369235038153,-71.32575096882152,0 -66.16155265068758,-69.28499198844825,0 -65.69167062178862,-67.03930024154509,0 -62.80131534339114,-65.31693877277681,0 -60.58685257659665,-64.35428079597619,0 -60.9372976700481,-60.04249163569339,0 -79.92452350906613,-60.03906051835796,0 -102.1716246361112,-60.12734947212975,0 -103.3280706311128,-67.36281301904128,0 
			</coordinates>
		</LineString>
		<atom:link rel="app" href="https://www.google.com/earth/about/versions/#earth-pro" title="Google Earth Pro 7.3.7.1155"></atom:link>
	</Placemark>
</Document>
</kml>
