<?xml version="1.0" encoding="UTF-8"?>
<kml xmlns="http://www.opengis.net/kml/2.2" xmlns:gx="http://www.google.com/kml/ext/2.2" xmlns:kml="http://www.opengis.net/kml/2.2" xmlns:atom="http://www.w3.org/2005/Atom">
<Document>
	<name>EastIndianOcean.kml</name>
	<StyleMap id="inline">
		<Pair>
			<key>normal</key>
			<styleUrl>#inline1</styleUrl>
		</Pair>
		<Pair>
			<key>highlight</key>
			<styleUrl>#inline0</styleUrl>
		</Pair>
	</StyleMap>
	<Style id="inline0">
		<LineStyle>
			<color>ff0000ff</color>
			<width>2</width>
		</LineStyle>
		<PolyStyle>
			<fill>0</fill>
		</PolyStyle>
	</Style>
	<Style id="inline1">
		<LineStyle>
			<color>ff0000ff</color>
			<width>2</width>
		</LineStyle>
		<PolyStyle>
			<fill>0</fill>
		</PolyStyle>
	</Style>
	<Placemark>
		<name>EastIndianOcean</name>
		<styleUrl>#inline</styleUrl>
		<LineString>
			<tessellate>1</tessellate>
			<coordinates>
				90.96427001588977,-74.95177964108315,0 90.19765490902918,-55.03220434144419,0 109.8658312900753,-54.96148732263084,0 130.1011309171083,-54.91520093998938,0 149.8931117475049,-54.98604790212168,0 169.7147606891007,-54.92276907861567,0 170.0230242225165,-71.00876733330102,0 163.5889072046806,-72.69504012526538,0 155.341673005878,-72.48136826940247,0 139.9689955231307,-74.92402050970539,0 119.8568398905788,-75.01978107327915,0 93.40529648192054,-74.95955449394822,0 
			</coordinates>
		</LineString>
		<atom:link rel="app" href="https://www.google.com/earth/about/versions/#earth-pro" title="Google Earth Pro 7.3.7.1155"></atom:link>
	</Placemark>
</Document>
</kml>
