<?xml version="1.0" encoding="UTF-8"?>
<kml xmlns="http://www.opengis.net/kml/2.2" xmlns:gx="http://www.google.com/kml/ext/2.2" xmlns:kml="http://www.opengis.net/kml/2.2" xmlns:atom="http://www.w3.org/2005/Atom">
<Document>
	<name>RossSea.kml</name>
	<Style id="inline">
		<LineStyle>
			<color>ff0000ff</color>
			<width>2</width>
		</LineStyle>
		<PolyStyle>
			<fill>0</fill>
		</PolyStyle>
	</Style>
	<StyleMap id="inline0">
		<Pair>
			<key>normal</key>
			<styleUrl>#inline1</styleUrl>
		</Pair>
		<Pair>
			<key>highlight</key>
			<styleUrl>#inline</styleUrl>
		</Pair>
	</StyleMap>
	<Style id="inline1">
		<LineStyle>
			<color>ff0000ff</color>
			<width>2</width>
		</LineStyle>
		<PolyStyle>
			<fill>0</fill>
		</PolyStyle>
	</Style>
	<Placemark>
		<name>RossSea</name>
		<styleUrl>#inline0</styleUrl>
		<LineString>
			<tessellate>1</tessellate>
			<coordinates>
				170.3827031468435,-70.00105632460766,0 170.5280472617046,-70.9969217844656,0 163.8914035974571,-72.71465327385005,0 155.4682516216214,-72.62335726428132,0 140.6420154953717,-80.03688898936157,0 139.0461567316057,-86.05251636863031,0 246.145702031413,-85.61942896628628,0 236.8239701275104,-80.70765200045319,0 224.2705462890605,-76.76686897877602,0 209.8289025728168,-75.01914773313932,0 210.0991169094154,-70.04475991101614,0 189.7402663692112,-69.9007762609638,0 172.0190539792638,-69.9834470836294,0 
			</coordinates>
		</LineString>
		<atom:link rel="app" href="https://www.google.com/earth/about/versions/#earth-pro" title="Google Earth Pro 7.3.7.1155"></atom:link>
	</Placemark>
</Document>
</kml>
