<?xml version="1.0" encoding="UTF-8"?>
<kml xmlns="http://www.opengis.net/kml/2.2" xmlns:gx="http://www.google.com/kml/ext/2.2" xmlns:kml="http://www.opengis.net/kml/2.2" xmlns:atom="http://www.w3.org/2005/Atom">
<Document>
	<name>WestIndianOcean.kml</name>
	<Style id="inline">
		<LineStyle>
			<color>ff0000ff</color>
			<width>2</width>
		</LineStyle>
		<PolyStyle>
			<fill>0</fill>
		</PolyStyle>
	</Style>
	<Style id="inline0">
		<LineStyle>
			<color>ff0000ff</color>
			<width>2</width>
		</LineStyle>
		<PolyStyle>
			<fill>0</fill>
		</PolyStyle>
	</Style>
	<StyleMap id="inline1">
		<Pair>
			<key>normal</key>
			<styleUrl>#inline</styleUrl>
		</Pair>
		<Pair>
			<key>highlight</key>
			<styleUrl>#inline0</styleUrl>
		</Pair>
	</StyleMap>
	<Placemark>
		<name>WestIndianOcean</name>
		<styleUrl>#inline1</styleUrl>
		<LineString>
			<tessellate>1</tessellate>
			<coordinates>
				0.2360037219478772,-74.9543653077987,0 30.41643437305414,-75.09838000919525,0 60.27218524558544,-74.9842053001873,0 90.29125887786249,-74.93875928503678,0 90.09355330974726,-55.00316654733408,0 60.10049276856555,-55.01657930847076,0 30.10926192756239,-55.04864489192604,0 0.1695193420885222,-55.09649857448171,0 0.08572243304108662,-74.32104946297189,0 
			</coordinates>
		</LineString>
		<atom:link rel="app" href="https://www.google.com/earth/about/versions/#earth-pro" title="Google Earth Pro 7.3.7.1155"></atom:link>
	</Placemark>
</Document>
</kml>
